[{"OBJECT_NAME":"STARLINK-30825","OBJECT_ID":"2023-178L","EPOCH":"2026-03-09T05:44:21.548256","MEAN_MOTION":15.30189727,"ECCENTRICITY":0.00010009,"INCLINATION":53.1614,"RA_OF_ASC_NODE":3.0548,"ARG_OF_PERICENTER":72.71,"MEAN_ANOMALY":287.4011,"EPHEMERIS_TYPE":0,"CLASSIFICATION_TYPE":"U","NORAD_CAT_ID":58384,"ELEMENT_SET_NO":999,"REV_AT_EPOCH":12982,"BSTAR":3.6171006e-5,"MEAN_MOTION_DOT":7.12e-6,"MEAN_MOTION_DDOT":0},{"OBJECT_NAME":"CZ-6A DEB","OBJECT_ID":"2022-151NB","EPOCH":"2026-03-09T18:26:17.609568","MEAN_MOTION":15.22372787,"ECCENTRICITY":0.00267955,"INCLINATION":98.6489,"RA_OF_ASC_NODE":154.0342,"ARG_OF_PERICENTER":180.4296,"MEAN_ANOMALY":179.6918,"EPHEMERIS_TYPE":0,"CLASSIFICATION_TYPE":"U","NORAD_CAT_ID":54601,"ELEMENT_SET_NO":999,"REV_AT_EPOCH":17694,"BSTAR":0.011449911,"MEAN_MOTION_DOT":0.00276508,"MEAN_MOTION_DDOT":0}]
